{"fetched_at":"2026-03-29T16:36:15Z","count":15609,"tles":[{"name":"LEMUR-2-THERMORAPTOR","line1":"1 63354U 25061D   26087.89318576  .00005352  00000+0  30187-3 0  9991","line2":"2 63354  97.5635  64.4746 0019482 167.6661 192.5051 15.13434714 55462","category":"Other"}]}